ELFIN-A                 
1 43617U 18070E   21144.38647914  .00007903  00000-0  16757-3 0  9999
2 43617  93.0289 296.9144 0016133  92.5996 267.7109 15.44933541151078
CUBEBEL-1 (BSUSAT-1)    
1 43666U 18083E   21144.53937940  .00002033  00000-0  99476-4 0  9994
2 43666  97.4569 173.2095 0012698 250.6714 214.9962 15.19284745142382
CICERO 10               
1 43690U 18088A   21144.36944365  .00001791  00000-0  78341-4 0  9994
2 43690  85.0404 213.5487 0016264 132.8266 227.4346 15.21182076140547
IRVINE01                
1 43693U 18088D   21143.75905117  .00003617  00000-0  14084-3 0  9993
2 43693  85.0370 211.3648 0019103 114.2139 246.1104 15.25429324140673
PROXIMA I               
1 43694U 18088E   21143.90678929  .00001613  00000-0  66644-4 0  9993
2 43694  85.0345 211.5283 0021013 108.7842 251.5682 15.22907330140648
PROXIMA II              
1 43696U 18088G   21143.64217010  .00001514  00000-0  62473-4 0  9992
2 43696  85.0346 211.7117 0021055 109.6358 250.7159 15.22904330140598
FACSAT-1                
1 43721U 18096C   21144.57531041  .00003132  00000-0  11430-3 0  9990
2 43721  97.3848 221.8970 0016587   2.4297 106.7202 15.28772660138473
CENTAURI-2              
1 43722U 18096D   21143.75823950  .00002907  00000-0  10281-3 0  9995
2 43722  97.3880 221.8328 0016302   3.9357 356.2009 15.29863167138386
INNOSAT-2               
1 43738U 18096V   21144.52775137  .00005721  00000-0  17894-3 0  9995
2 43738  97.3921 226.2304 0021041   1.6016 122.5914 15.33325933138732
SIRION PATHFINDER-2     
1 43759U 18099B   21143.90449091 -.00000046  00000-0  97997-6 0  9990
2 43759  97.6651 215.0145 0015518 122.3841 237.8884 14.95506740134811
CORVUS BC4              
1 43767U 18099K   21143.90658802 -.00000048  00000-0  80227-6 0  9991
2 43767  97.6624 214.0392 0012957 126.3058 233.9361 14.94932623134764
MOVE-II                 
1 43780U 18099Y   21143.72897370  .00000872  00000-0  82956-4 0  9994
2 43780  97.6671 214.9666 0014680 133.7017 226.5423 14.95895593134779
SPACEBEE-7              
1 43816U 18099BL  21144.07833812  .00001179  00000-0  10968-3 0  9998
2 43816  97.6689 215.8922 0014961 117.5915 242.6827 14.96106508134412
SPACEBEE-5              
1 43817U 18099BM  21143.70272541  .00001333  00000-0  11976-3 0  9996
2 43817  97.6784 216.7126 0014638 117.0902 243.1815 14.97293335134405
SPACEBEE-6              
1 43818U 18099BN  21144.11547840  .00000552  00000-0  53567-4 0  9995
2 43818  97.6714 216.2931 0014552 117.1045 243.1663 14.96465686134581
SHIELDS 1               
1 43850U 18104B   21143.93004271  .00000812  00000-0  33914-4 0  9996
2 43850  85.0264 310.1619 0012487 257.0106 102.9742 15.21856376135245
STF-1                   
1 43852U 18104D   21143.90695124  .00001912  00000-0  81038-4 0  9990
2 43852  85.0304 310.8458 0011938 274.0345  85.9533 15.22373002135221
ZACUBE-2                
1 43907U 18111AH  21144.57817013  .00000966  00000-0  41086-4 0  9993
2 43907  97.2354  39.5236 0022008  22.9106  71.7718 15.25167141133994
LUME 1                  
1 43908U 18111AJ  21144.13589054  .00001843  00000-0  73630-4 0  9992
2 43908  97.2363  39.6224 0021210  22.5475 337.6691 15.26164560133966
AOBA VELOX-IV           
1 43940U 19003J   21144.12846473  .00003962  00000-0  15046-3 0  9999
2 43940  97.1797 189.1321 0024467  95.8522 264.5508 15.27101314130594
UNITE                   
1 44031U 98067PX  21143.93914346  .00035762  00000-0  22045-3 0  9991
2 44031  51.6406  31.7418 0001462 184.2154 175.8835 15.76806332131809
RAAVANA-1               
1 44329U 98067QE  21144.13589392  .00043763  00000-0  28804-3 0  9992
2 44329  51.6359  50.4011 0004552 169.2729 190.8368 15.75201970110325
UGUISU                  
1 44330U 98067QF  21143.74499504  .00043765  00000-0  29440-3 0  9994
2 44330  51.6317  52.9543 0004446 169.4306 190.6788 15.74699171110230
NEPALISAT-1             
1 44331U 98067QG  21143.94007261  .00040326  00000-0  26692-3 0  9998
2 44331  51.6331  51.2537 0004472 170.3826 189.7260 15.75110145110288
SPOOQY-1                
1 44332U 98067QH  21144.13540911  .00039760  00000-0  27267-3 0  9994
2 44332  51.6342  51.0997 0003882 167.7371 192.3723 15.74299336110269
SPACEBEE-9              
1 44370U 19037F   21144.30407797  .00027860  00000-0  39572-3 0  9999
2 44370  45.0009 356.3783 0003741  94.1226 266.0095 15.55949582107427
MOVE-IIB                
1 44398U 19038N   21143.85013698  .00002143  00000-0  12230-3 0  9991
2 44398  97.5819 107.9671 0025455  37.7159 322.5850 15.13578130104041
SONATE                  
1 44400U 19038Q   21144.56484230  .00001123  00000-0  67803-4 0  9992
2 44400  97.5878 108.5738 0025899  35.4569 324.8376 15.12513845104121
LUCKY-7                 
1 44406U 19038W   21143.84737229  .00001115  00000-0  66662-4 0  9990
2 44406  97.5881 108.0970 0025318  36.8748 323.4217 15.12907097104028
BEESAT 9                
1 44412U 19038AC  21143.87189572  .00001551  00000-0  90537-4 0  9994
2 44412  97.5865 108.1398 0023427  42.1277 318.1749 15.13221069103735
JAISAT-1                
1 44419U 19038F   21143.84951442  .00001597  00000-0  91923-4 0  9991
2 44419  97.5868 108.6455 0022286  40.7561 319.5332 15.13705467104076
KRAKSAT                 
1 44427U 98067QM  21144.40726946  .00024678  00000-0  23755-3 0  9993
2 44427  51.6373  62.6490 0003942 127.5003 339.1256 15.66387094107704
VCC A                   
1 44428U 98067QN  21143.78299797  .00037274  00000-0  27015-3 0  9992
2 44428  51.6357  56.3841 0003649 138.3818 221.7459 15.73039361107738
ENTRYSAT                
1 44429U 98067QP  21143.93972175  .00077583  00000-0  37553-3 0  9993
2 44429  51.6299  46.7323 0004160 152.4569 207.6654 15.81814091107876
VCC C                   
1 44430U 98067QQ  21135.86339224  .14395497  12494-4  36286-3 0  9998
2 44430  51.6031  72.7547 0006607 237.3053 122.7339 16.45570539105634
VCC B                   
1 44431U 98067QR  21143.93547001  .00038735  00000-0  27389-3 0  9994
2 44431  51.6327  55.0604 0003726 140.8940 219.2329 15.73599475107704
DUCHIFAT-3              
1 44854U 19089C   21144.42158437  .00000682  00000-0  60854-4 0  9991
2 44854  36.9661 242.7515 0009575 304.9821  54.9998 14.99480568 79494
EYESAT-NANO             
1 44877U 19092E   21144.09564793  .00001799  00000-0  91845-4 0  9993
2 44877  97.4605 328.0811 0011529 275.3561  84.6357 15.17944381 79241
ORBITAL FACTORY 2 (OF-2)
1 45113U 19071C   21144.39292488  .00002336  00000-0  77310-4 0  9995
2 45113  51.6402 154.1586 0011448 204.8585 155.1848 15.35622740 73472
M2 PATHFINDER           
1 45727U 20037E   21144.06300145  .00000896  00000-0  95273-4 0  9991
2 45727  97.7136 322.4128 0011680 246.6917 113.3051 14.91379794 48788
NETSAT-4                
1 46504U 20068U   21143.85280557  .00000134  00000-0  14796-4 0  9995
2 46504  97.6824  80.9100 0010240 208.4695 151.5972 15.02068224 35543
NETSAT-3                
1 46505U 20068V   21143.79217510  .00002007  00000-0  15754-3 0  9993
2 46505  97.6900  80.8305 0008110 207.2083 152.8695 15.02043828 35545
NETSAT-1                
1 46506U 20068W   21143.93129514 -.00000047  00000-0  10348-5 0  9995
2 46506  97.6860  80.9477 0005314 205.1444 154.9507 15.02013531 35568
NETSAT-2                
1 46507U 20068X   21143.93445836 -.00000034  00000-0  20135-5 0  9995
2 46507  97.6887  80.9517 0004280 199.9767 160.1268 15.01995353 35510
SPOC                    
1 46921U 98067RR  21144.15329803  .00008113  00000-0  13041-3 0  9990
2 46921  51.6416  97.1718 0002291  18.8497 341.2578 15.53965626 31070
BOBCAT-1                
1 46922U 98067RS  21144.44965919  .00012136  00000-0  18117-3 0  9996
2 46922  51.6424  94.6670 0002306  33.1397 326.9739 15.55481949 31099
NEUTRON-1               
1 46923U 98067RT  21144.35982808  .00008506  00000-0  13696-3 0  9996
2 46923  51.6416  96.2988 0002479  31.0316 329.0821 15.53846711 31131
1998-067RU              
1 46924U 98067RU  21143.89697666  .00021689  00000-0  28275-3 0  9996
2 46924  51.6399  95.4513 0003432  62.1635 297.9705 15.58642870 31089
DESCENT                 
1 46927U 98067RX  21144.55742342  .00008052  00000-0  13017-3 0  9992
2 46927  51.6416  95.3660 0002906  45.7043 314.4185 15.53819928 31070
SAI-1 NANOCONNECT-2     
1 47701U 21015C   21143.64067256 -.00000071  00000-0  00000-0 0  9994
2 47701  97.4563 218.3737 0013526  28.6330 331.5671 15.22580207 12848
WARP-01                 
1 47924U 98067SA  21143.89228548  .00011110  00000-0  19386-3 0  9997
2 47924  51.6411 102.1574 0005686  27.0338 333.0946 15.51217618 10987
RSP-01                  
1 47925U 98067SB  21144.34074685  .00009633  00000-0  16962-3 0  9994
2 47925  51.6421  99.9074 0001658 341.6937  18.3992 15.51144828 11035
TAUSAT-1                
1 47926U 98067SC  21144.32318542  .00011174  00000-0  19175-3 0  9998
2 47926  51.6418  99.7903 0002688 330.9746  29.1094 15.51689725 11026
TSURU                   
1 47927U 98067SD  21143.95642826  .00007962  00000-0  14219-3 0  9996
2 47927  51.6420 101.8403 0001649 335.1196  24.9713 15.51018371 10979
STARS-EC                
1 47928U 98067SE  21144.47390508  .00012044  00000-0  21039-3 0  9997
2 47928  51.6417  99.2921 0006425  31.2954 328.8417 15.51090520 11035
MAYA-2                  
1 47929U 98067SF  21144.14824825  .00008129  00000-0  14484-3 0  9991
2 47929  51.6421 100.8716 0001669 330.3909  29.6986 15.51053632 10961
HIROGARI (OPUSAT-II)    
1 47930U 98067SG  21144.46450211  .00011679  00000-0  20173-3 0  9998
2 47930  51.6421  99.2344 0001473 335.7538  24.3382 15.51455002 11051
GUARANISAT-1            
1 47931U 98067SH  21144.14764539  .00007836  00000-0  13984-3 0  9997
2 47931  51.6422 100.8681 0001682 328.5254  31.5634 15.51066233 11002
SMOG-1                  
1 47964U 21022AJ  21141.75654250  .00001421  00000-0  98644-4 0  9993
2 47964  97.5582  44.5566 0021253  39.4916  45.3727 15.07003395  7854
